{
    "links": {
        "self": "http://www.neowsapp.com/rest/v1/neo/3547227?api_key=iIulBulltgU6a56xZRHN4H3l9WmuAYTsLGpBGhQ2"
    },
    "id": "3547227",
    "neo_reference_id": "3547227",
    "name": "(2010 SE12)",
    "designation": "2010 SE12",
    "nasa_jpl_url": "http://ssd.jpl.nasa.gov/sbdb.cgi?sstr=3547227",
    "absolute_magnitude_h": 24.2,
    "estimated_diameter": {
        "kilometers": {
            "estimated_diameter_min": 0.0384197891,
            "estimated_diameter_max": 0.0859092601
        },
        "meters": {
            "estimated_diameter_min": 38.4197891064,
            "estimated_diameter_max": 85.9092601232
        },
        "miles": {
            "estimated_diameter_min": 0.0238729428,
            "estimated_diameter_max": 0.0533815229
        },
        "feet": {
            "estimated_diameter_min": 126.0491808919,
            "estimated_diameter_max": 281.8545369825
        }
    },
    "is_potentially_hazardous_asteroid": false,
    "close_approach_data": [
        {
            "close_approach_date": "2002-09-02",
            "close_approach_date_full": "2002-Sep-02 11:20",
            "epoch_date_close_approach": 1030965600000,
            "relative_velocity": {
                "kilometers_per_second": "7.1410879394",
                "kilometers_per_hour": "25707.9165816937",
                "miles_per_hour": "15973.899611553"
            },
            "miss_distance": {
                "astronomical": "0.2229810128",
                "lunar": "86.7396139792",
                "kilometers": "33357484.565322736",
                "miles": "20727379.7675203168"
            },
            "orbiting_body": "Earth"
        },
        {
            "close_approach_date": "2010-09-11",
            "close_approach_date_full": "2010-Sep-11 15:25",
            "epoch_date_close_approach": 1284218700000,
            "relative_velocity": {
                "kilometers_per_second": "4.9604700411",
                "kilometers_per_hour": "17857.6921479125",
                "miles_per_hour": "11096.0754349071"
            },
            "miss_distance": {
                "astronomical": "0.122289329",
                "lunar": "47.570548981",
                "kilometers": "18294223.14212923",
                "miles": "11367503.142394174"
            },
            "orbiting_body": "Earth"
        }
    ],
    "orbital_data": {
        "orbit_id": "10",
        "orbit_determination_date": "2017-04-06 08:56:34",
        "first_observation_date": "2010-09-19",
        "last_observation_date": "2010-10-08",
        "data_arc_in_days": 19,
        "observations_used": 27,
        "orbit_uncertainty": "7",
        "minimum_orbit_intersection": ".114729",
        "jupiter_tisserand_invariant": "4.810",
        "epoch_osculation": "2459000.5",
        "eccentricity": ".184792220571052",
        "semi_major_axis": "1.363071674516188",
        "inclination": "9.297795676205007",
        "ascending_node_longitude": "178.3581891632776",
        "orbital_period": "581.268068968749",
        "perihelion_distance": "1.111186632984839",
        "perihelion_argument": "154.9640722813872",
        "aphelion_distance": "1.614956716047536",
        "perihelion_time": "2458920.275693921802",
        "mean_anomaly": "49.68576760011933",
        "mean_motion": ".619335585797256",
        "equinox": "J2000",
        "orbit_class": {
            "orbit_class_type": "AMO",
            "orbit_class_description": "Near-Earth asteroid orbits similar to that of 1221 Amor",
            "orbit_class_range": "1.017 AU < q (perihelion) < 1.3 AU"
        }
    },
    "is_sentry_object": false
}